{
  "norad_id": 43753,
  "name": "COSMOS 2532 (RODNIK-S 18)",
  "history": [
    {
      "epoch": "2026-03-28T22:21:23.258880Z",
      "apogee_km": 1508.0529816752187,
      "perigee_km": 1480.555803481565,
      "latitude_deg": 3.3037649866743e-05,
      "longitude_deg": 110.26290916455024,
      "height_km": 1505.770320504125,
      "semi_major_axis_km": 7872.441392578392,
      "eccentricity": 0.00174642,
      "inclination_deg": 82.5087,
      "raan_deg": 271.9547,
      "arg_perigee_deg": 230.4264,
      "mean_anomaly_deg": 129.5274,
      "mean_motion_rev_day": 12.42906925
    },
    {
      "epoch": "2026-03-29T04:09:07.789248Z",
      "apogee_km": 1508.0605401587154,
      "perigee_km": 1480.5479325259466,
      "latitude_deg": -3.129393233348604e-05,
      "longitude_deg": 22.939236548048,
      "height_km": 1505.869847065611,
      "semi_major_axis_km": 7872.441236342331,
      "eccentricity": 0.0017474,
      "inclination_deg": 82.5087,
      "raan_deg": 271.8046,
      "arg_perigee_deg": 229.9128,
      "mean_anomaly_deg": 130.042,
      "mean_motion_rev_day": 12.42906962
    },
    {
      "epoch": "2026-03-30T05:16:00.734016Z",
      "apogee_km": 1508.0818009135292,
      "perigee_km": 1480.5235386055674,
      "latitude_deg": 4.4232759059291767e-05,
      "longitude_deg": 4.537219543633529,
      "height_km": 1506.3190522453594,
      "semi_major_axis_km": 7872.4396697595475,
      "eccentricity": 0.0017503,
      "inclination_deg": 82.5085,
      "raan_deg": 271.1546,
      "arg_perigee_deg": 227.5012,
      "mean_anomaly_deg": 132.459,
      "mean_motion_rev_day": 12.42907333
    },
    {
      "epoch": "2026-03-30T07:11:55.566816Z",
      "apogee_km": 1508.0767336432427,
      "perigee_km": 1480.5261905525158,
      "latitude_deg": 9.726429951266788e-05,
      "longitude_deg": -24.570583655128914,
      "height_km": 1506.345516201151,
      "semi_major_axis_km": 7872.438462097879,
      "eccentricity": 0.00174981,
      "inclination_deg": 82.5084,
      "raan_deg": 271.1046,
      "arg_perigee_deg": 227.3303,
      "mean_anomaly_deg": 132.6304,
      "mean_motion_rev_day": 12.42907619
    },
    {
      "epoch": "2026-03-30T14:55:34.961088Z",
      "apogee_km": 1508.0903228932302,
      "perigee_km": 1480.5169421290475,
      "latitude_deg": 1.639046016919039e-05,
      "longitude_deg": -141.00209831223327,
      "height_km": 1506.487985788063,
      "semi_major_axis_km": 7872.440632511139,
      "eccentricity": 0.00175126,
      "inclination_deg": 82.5083,
      "raan_deg": 270.9046,
      "arg_perigee_deg": 226.577,
      "mean_anomaly_deg": 133.3853,
      "mean_motion_rev_day": 12.42907105
    },
    {
      "epoch": "2026-03-30T22:39:14.337216Z",
      "apogee_km": 1508.1081912237905,
      "perigee_km": 1480.5004841454902,
      "latitude_deg": 3.4942274633845564e-05,
      "longitude_deg": 102.5664758486454,
      "height_km": 1506.6338217619705,
      "semi_major_axis_km": 7872.44133768464,
      "eccentricity": 0.00175344,
      "inclination_deg": 82.5082,
      "raan_deg": 270.7046,
      "arg_perigee_deg": 225.8107,
      "mean_anomaly_deg": 134.1533,
      "mean_motion_rev_day": 12.42906938
    },
    {
      "epoch": "2026-03-31T19:54:17.603424Z",
      "apogee_km": 1508.1207100383663,
      "perigee_km": 1480.485296650626,
      "latitude_deg": 2.45217117591999e-05,
      "longitude_deg": 142.3800227638258,
      "height_km": 1506.980150228348,
      "semi_major_axis_km": 7872.440003344495,
      "eccentricity": 0.0017552,
      "inclination_deg": 82.508,
      "raan_deg": 270.1545,
      "arg_perigee_deg": 223.8236,
      "mean_anomaly_deg": 136.1452,
      "mean_motion_rev_day": 12.42907254
    },
    {
      "epoch": "2026-04-01T21:01:10.556832Z",
      "apogee_km": 1508.1500415673909,
      "perigee_km": 1480.4547996856263,
      "latitude_deg": 4.118392152851013e-05,
      "longitude_deg": 123.97776260397256,
      "height_km": 1507.3980217812302,
      "semi_major_axis_km": 7872.439420626508,
      "eccentricity": 0.001759,
      "inclination_deg": 82.5077,
      "raan_deg": 269.5043,
      "arg_perigee_deg": 221.3996,
      "mean_anomaly_deg": 138.5752,
      "mean_motion_rev_day": 12.42907392
    },
    {
      "epoch": "2026-04-02T20:12:08.680032Z",
      "apogee_km": 1508.179528689393,
      "perigee_km": 1480.4276012098335,
      "latitude_deg": -7.204730526720035e-05,
      "longitude_deg": 134.68328426786837,
      "height_km": 1507.7575611308512,
      "semi_major_axis_km": 7872.440564949613,
      "eccentricity": 0.0017626,
      "inclination_deg": 82.5077,
      "raan_deg": 268.9041,
      "arg_perigee_deg": 219.2496,
      "mean_anomaly_deg": 140.7306,
      "mean_motion_rev_day": 12.42907121
    },
    {
      "epoch": "2026-04-02T22:08:03.519744Z",
      "apogee_km": 1508.1887808080646,
      "perigee_km": 1480.4187460151306,
      "latitude_deg": 2.2789928401877133e-05,
      "longitude_deg": 105.57545762526843,
      "height_km": 1507.7976202557365,
      "semi_major_axis_km": 7872.440763411597,
      "eccentricity": 0.00176375,
      "inclination_deg": 82.5077,
      "raan_deg": 268.8541,
      "arg_perigee_deg": 219.035,
      "mean_anomaly_deg": 140.9458,
      "mean_motion_rev_day": 12.42907074
    },
    {
      "epoch": "2026-04-03T21:19:01.632576Z",
      "apogee_km": 1508.2062827514974,
      "perigee_km": 1480.3992510069265,
      "latitude_deg": 6.707437172517615e-05,
      "longitude_deg": 116.2809424686156,
      "height_km": 1508.1386794987877,
      "semi_major_axis_km": 7872.439766879212,
      "eccentricity": 0.0017661,
      "inclination_deg": 82.5078,
      "raan_deg": 268.2538,
      "arg_perigee_deg": 216.8396,
      "mean_anomaly_deg": 143.1472,
      "mean_motion_rev_day": 12.4290731
    },
    {
      "epoch": "2026-04-04T06:58:35.833728Z",
      "apogee_km": 1508.2011082918007,
      "perigee_km": 1480.4008531529562,
      "latitude_deg": 4.516642160172834e-06,
      "longitude_deg": -29.258472385084207,
      "height_km": 1508.2573503839244,
      "semi_major_axis_km": 7872.437980722379,
      "eccentricity": 0.00176567,
      "inclination_deg": 82.5079,
      "raan_deg": 268.0036,
      "arg_perigee_deg": 215.9847,
      "mean_anomaly_deg": 144.0045,
      "mean_motion_rev_day": 12.42907733
    },
    {
      "epoch": "2026-04-05T13:53:13.359840Z",
      "apogee_km": 1508.2366193825183,
      "perigee_km": 1480.3695984361993,
      "latitude_deg": 1.321694520006279e-06,
      "longitude_deg": -134.98457931634235,
      "height_km": 1508.6872776874384,
      "semi_major_axis_km": 7872.440108909359,
      "eccentricity": 0.00176991,
      "inclination_deg": 82.5083,
      "raan_deg": 267.2033,
      "arg_perigee_deg": 213.0781,
      "mean_anomaly_deg": 146.9193,
      "mean_motion_rev_day": 12.42907229
    },
    {
      "epoch": "2026-04-05T19:40:57.895392Z",
      "apogee_km": 1508.2549899066998,
      "perigee_km": 1480.3519119723896,
      "latitude_deg": -2.9105645522954297e-05,
      "longitude_deg": 137.6918303506652,
      "height_km": 1508.7810994339154,
      "semi_major_axis_km": 7872.4404509395445,
      "eccentricity": 0.0017722,
      "inclination_deg": 82.5084,
      "raan_deg": 267.0533,
      "arg_perigee_deg": 212.4838,
      "mean_anomaly_deg": 147.5152,
      "mean_motion_rev_day": 12.42907148
    },
    {
      "epoch": "2026-04-06T07:16:26.940576Z",
      "apogee_km": 1508.2595391886543,
      "perigee_km": 1480.3437143693236,
      "latitude_deg": -5.861909731379138e-05,
      "longitude_deg": -36.9554381272694,
      "height_km": 1508.9165247449137,
      "semi_major_axis_km": 7872.438626778989,
      "eccentricity": 0.00177301,
      "inclination_deg": 82.5086,
      "raan_deg": 266.7531,
      "arg_perigee_deg": 211.4617,
      "mean_anomaly_deg": 148.5403,
      "mean_motion_rev_day": 12.4290758
    },
    {
      "epoch": "2026-04-07T14:11:04.470144Z",
      "apogee_km": 1508.3058550449296,
      "perigee_km": 1480.30153665521,
      "latitude_deg": 2.9659357182612472e-05,
      "longitude_deg": -142.68144927978662,
      "height_km": 1509.314551632276,
      "semi_major_axis_km": 7872.4406958500695,
      "eccentricity": 0.00177863,
      "inclination_deg": 82.509,
      "raan_deg": 265.9529,
      "arg_perigee_deg": 208.5295,
      "mean_anomaly_deg": 151.4813,
      "mean_motion_rev_day": 12.4290709
    },
    {
      "epoch": "2026-04-07T19:58:48.996192Z",
      "apogee_km": 1508.3329312972837,
      "perigee_km": 1480.2739790269952,
      "latitude_deg": -8.865977718155734e-06,
      "longitude_deg": 129.99499876079466,
      "height_km": 1509.4020236030785,
      "semi_major_axis_km": 7872.440455162139,
      "eccentricity": 0.0017821,
      "inclination_deg": 82.509,
      "raan_deg": 265.8029,
      "arg_perigee_deg": 207.9798,
      "mean_anomaly_deg": 152.0325,
      "mean_motion_rev_day": 12.42907147
    },
    {
      "epoch": "2026-04-08T15:17:57.452064Z",
      "apogee_km": 1508.3386680706308,
      "perigee_km": 1480.2680649046533,
      "latitude_deg": -3.25061408644521e-05,
      "longitude_deg": -161.08374336697608,
      "height_km": 1509.6023325799606,
      "semi_major_axis_km": 7872.440366487642,
      "eccentricity": 0.00178284,
      "inclination_deg": 82.5093,
      "raan_deg": 265.3028,
      "arg_perigee_deg": 206.2298,
      "mean_anomaly_deg": 153.788,
      "mean_motion_rev_day": 12.42907168
    },
    {
      "epoch": "2026-04-09T20:16:40.104768Z",
      "apogee_km": 1508.3825154184733,
      "perigee_km": 1480.2227987650558,
      "latitude_deg": 3.9748675787108185e-05,
      "longitude_deg": 122.29843760236848,
      "height_km": 1509.9246759128303,
      "semi_major_axis_km": 7872.439657091764,
      "eccentricity": 0.0017885,
      "inclination_deg": 82.5094,
      "raan_deg": 264.5528,
      "arg_perigee_deg": 203.4876,
      "mean_anomaly_deg": 156.5389,
      "mean_motion_rev_day": 12.42907336
    }
  ]
}